{
  "type": "FeatureCollection",
  "features": [
    {
      "type": "Feature",
      "properties": {
        "norad_id": 36622,
        "name": "COSMOS 2251 DEB",
        "group": "cosmos-2251-debris",
        "lat": -20.476663180344513,
        "lon": -39.266150664520104,
        "alt_km": 627.3719001976124,
        "timestamp": "2025-12-18T07:01:54.987128+00:00",
        "meta_object_name": "COSMOS 2251 DEB",
        "meta_object_id": "1993-036BEL",
        "meta_epoch": "2025-12-16T03:41:49.595136",
        "meta_mean_motion": 14.76229429,
        "meta_eccentricity": 0.00688161,
        "meta_inclination": 74.0127,
        "meta_ra_of_asc_node": 138.7807,
        "meta_arg_of_pericenter": 273.5209,
        "meta_mean_anomaly": 85.8096,
        "meta_ephemeris_type": 0,
        "meta_classification_type": "U",
        "meta_norad_cat_id": 36622,
        "meta_element_set_no": 999,
        "meta_rev_at_epoch": 66800,
        "meta_bstar": 0.00051790334,
        "meta_mean_motion_dot": 3.692e-05,
        "meta_mean_motion_ddot": 0,
        "tle_line1": "1 36622U 93036BEL 25350.15404624  .00003692  00000+0  51790-3 0  9995",
        "tle_line2": "2 36622  74.0127 138.7807 0068816 273.5209  85.8096 14.76229429668005"
      },
      "geometry": {
        "type": "Point",
        "coordinates": [
          -39.266150664520104,
          -20.476663180344513
        ]
      }
    },
    {
      "type": "Feature",
      "properties": {
        "norad_id": 36632,
        "name": "COSMOS 2251 DEB",
        "group": "cosmos-2251-debris",
        "lat": 60.177860374183346,
        "lon": -47.92995584906048,
        "alt_km": 723.1561822986368,
        "timestamp": "2025-12-18T07:01:54.987138+00:00",
        "meta_object_name": "COSMOS 2251 DEB",
        "meta_object_id": "1993-036BEW",
        "meta_epoch": "2025-12-13T13:36:30.735360",
        "meta_mean_motion": 14.43181896,
        "meta_eccentricity": 0.00321339,
        "meta_inclination": 74.0018,
        "meta_ra_of_asc_node": 290.8293,
        "meta_arg_of_pericenter": 38.3996,
        "meta_mean_anomaly": 321.9438,
        "meta_ephemeris_type": 0,
        "meta_classification_type": "U",
        "meta_norad_cat_id": 36632,
        "meta_element_set_no": 999,
        "meta_rev_at_epoch": 65227,
        "meta_bstar": 0.0011350112,
        "meta_mean_motion_dot": 3.814e-05,
        "meta_mean_motion_ddot": 0,
        "tle_line1": "1 36632U 93036BEW 25347.56702240  .00003814  00000+0  11350-2 0  9995",
        "tle_line2": "2 36632  74.0018 290.8293 0032133  38.3996 321.9438 14.43181896652272"
      },
      "geometry": {
        "type": "Point",
        "coordinates": [
          -47.92995584906048,
          60.177860374183346
        ]
      }
    },
    {
      "type": "Feature",
      "properties": {
        "norad_id": 37084,
        "name": "COSMOS 2251 DEB",
        "group": "cosmos-2251-debris",
        "lat": 38.33630408449703,
        "lon": -42.95535816405726,
        "alt_km": 559.2773282195294,
        "timestamp": "2025-12-18T07:01:54.987148+00:00",
        "meta_object_name": "COSMOS 2251 DEB",
        "meta_object_id": "1993-036BFE",
        "meta_epoch": "2025-12-16T17:36:46.633248",
        "meta_mean_motion": 15.01047546,
        "meta_eccentricity": 0.00974837,
        "meta_inclination": 74.026,
        "meta_ra_of_asc_node": 153.3119,
        "meta_arg_of_pericenter": 232.9103,
        "meta_mean_anomaly": 126.3146,
        "meta_ephemeris_type": 0,
        "meta_classification_type": "U",
        "meta_norad_cat_id": 37084,
        "meta_element_set_no": 999,
        "meta_rev_at_epoch": 66327,
        "meta_bstar": 0.00052836057,
        "meta_mean_motion_dot": 7.439e-05,
        "meta_mean_motion_ddot": 0,
        "tle_line1": "1 37084U 93036BFE 25350.73387307  .00007439  00000+0  52836-3 0  9995",
        "tle_line2": "2 37084  74.0260 153.3119 0097483 232.9103 126.3146 15.01047546663277"
      },
      "geometry": {
        "type": "Point",
        "coordinates": [
          -42.95535816405726,
          38.33630408449703
        ]
      }
    },
    {
      "type": "Feature",
      "properties": {
        "norad_id": 37085,
        "name": "COSMOS 2251 DEB",
        "group": "cosmos-2251-debris",
        "lat": -64.2382095632731,
        "lon": 167.31573435786743,
        "alt_km": 449.82728176719866,
        "timestamp": "2025-12-18T07:01:54.987158+00:00",
        "meta_object_name": "COSMOS 2251 DEB",
        "meta_object_id": "1993-036BFF",
        "meta_epoch": "2025-12-13T09:00:31.802112",
        "meta_mean_motion": 15.41681601,
        "meta_eccentricity": 0.00213151,
        "meta_inclination": 73.9479,
        "meta_ra_of_asc_node": 214.6598,
        "meta_arg_of_pericenter": 52.8263,
        "meta_mean_anomaly": 307.4887,
        "meta_ephemeris_type": 0,
        "meta_classification_type": "U",
        "meta_norad_cat_id": 37085,
        "meta_element_set_no": 999,
        "meta_rev_at_epoch": 67147,
        "meta_bstar": 0.0024657072,
        "meta_mean_motion_dot": 0.00106285,
        "meta_mean_motion_ddot": 0,
        "tle_line1": "1 37085U 93036BFF 25347.37536808  .00106285  00000+0  24657-2 0  9992",
        "tle_line2": "2 37085  73.9479 214.6598 0021315  52.8263 307.4887 15.41681601671472"
      },
      "geometry": {
        "type": "Point",
        "coordinates": [
          167.31573435786743,
          -64.2382095632731
        ]
      }
    },
    {
      "type": "Feature",
      "properties": {
        "norad_id": 37089,
        "name": "COSMOS 2251 DEB",
        "group": "cosmos-2251-debris",
        "lat": 74.0259997675638,
        "lon": -134.34770887155642,
        "alt_km": 785.397817035635,
        "timestamp": "2025-12-18T07:01:54.987167+00:00",
        "meta_object_name": "COSMOS 2251 DEB",
        "meta_object_id": "1993-036BFK",
        "meta_epoch": "2025-12-15T02:35:52.652256",
        "meta_mean_motion": 14.5300115,
        "meta_eccentricity": 0.01350597,
        "meta_inclination": 74.0363,
        "meta_ra_of_asc_node": 141.2743,
        "meta_arg_of_pericenter": 240.987,
        "meta_mean_anomaly": 117.7703,
        "meta_ephemeris_type": 0,
        "meta_classification_type": "U",
        "meta_norad_cat_id": 37089,
        "meta_element_set_no": 999,
        "meta_rev_at_epoch": 66144,
        "meta_bstar": 0.0016025339,
        "meta_mean_motion_dot": 7.435e-05,
        "meta_mean_motion_ddot": 0,
        "tle_line1": "1 37089U 93036BFK 25349.10824829  .00007435  00000+0  16025-2 0  9999",
        "tle_line2": "2 37089  74.0363 141.2743 0135059 240.9870 117.7703 14.53001150661444"
      },
      "geometry": {
        "type": "Point",
        "coordinates": [
          -134.34770887155642,
          74.0259997675638
        ]
      }
    },
    {
      "type": "Feature",
      "properties": {
        "norad_id": 37094,
        "name": "COSMOS 2251 DEB",
        "group": "cosmos-2251-debris",
        "lat": -73.67218328694473,
        "lon": 34.472022932924226,
        "alt_km": 829.4418585358962,
        "timestamp": "2025-12-18T07:01:54.987177+00:00",
        "meta_object_name": "COSMOS 2251 DEB",
        "meta_object_id": "1993-036BFQ",
        "meta_epoch": "2025-12-10T15:45:11.030688",
        "meta_mean_motion": 14.37808892,
        "meta_eccentricity": 0.0084108,
        "meta_inclination": 74.1091,
        "meta_ra_of_asc_node": 124.9809,
        "meta_arg_of_pericenter": 91.4784,
        "meta_mean_anomaly": 269.6007,
        "meta_ephemeris_type": 0,
        "meta_classification_type": "U",
        "meta_norad_cat_id": 37094,
        "meta_element_set_no": 999,
        "meta_rev_at_epoch": 84476,
        "meta_bstar": 0.0015212,
        "meta_mean_motion_dot": 4.753e-05,
        "meta_mean_motion_ddot": 0,
        "tle_line1": "1 37094U 93036BFQ 25344.65637767  .00004753  00000+0  15212-2 0  9990",
        "tle_line2": "2 37094  74.1091 124.9809 0084108  91.4784 269.6007 14.37808892844763"
      },
      "geometry": {
        "type": "Point",
        "coordinates": [
          34.472022932924226,
          -73.67218328694473
        ]
      }
    },
    {
      "type": "Feature",
      "properties": {
        "norad_id": 37095,
        "name": "COSMOS 2251 DEB",
        "group": "cosmos-2251-debris",
        "lat": -52.062584293933725,
        "lon": 21.955541207789796,
        "alt_km": 747.0969285419824,
        "timestamp": "2025-12-18T07:01:54.987187+00:00",
        "meta_object_name": "COSMOS 2251 DEB",
        "meta_object_id": "1993-036BFR",
        "meta_epoch": "2025-12-14T06:06:08.543520",
        "meta_mean_motion": 14.03409585,
        "meta_eccentricity": 0.019488,
        "meta_inclination": 73.8479,
        "meta_ra_of_asc_node": 187.2421,
        "meta_arg_of_pericenter": 244.7942,
        "meta_mean_anomaly": 113.2877,
        "meta_ephemeris_type": 0,
        "meta_classification_type": "U",
        "meta_norad_cat_id": 37095,
        "meta_element_set_no": 999,
        "meta_rev_at_epoch": 62657,
        "meta_bstar": 0.0017117328,
        "meta_mean_motion_dot": 3.142e-05,
        "meta_mean_motion_ddot": 0,
        "tle_line1": "1 37095U 93036BFR 25348.25426555  .00003142  00000+0  17117-2 0  9999",
        "tle_line2": "2 37095  73.8479 187.2421 0194880 244.7942 113.2877 14.03409585626575"
      },
      "geometry": {
        "type": "Point",
        "coordinates": [
          21.955541207789796,
          -52.062584293933725
        ]
      }
    }
  ]
}